ALOS-4 (DAICHI-4)       
1 60182U 24123A   24206.59816590  .00004121  00000+0  55861-3 0  9991
2 60182  97.9219 302.7258 0001554 113.1022 247.0353 14.79451618  3472
